      2.10          N: GNSS NAV DATA                        RINEX VERSION / TYPE
fic2rin                                 01/26/2021 00:17:19 PGM / RUN BY / DATE
                                                            END OF HEADER
 4 21  1 25  6  0  0.0-1.753419637680e-04-2.842170943040e-12 0.000000000000e+00
    1.530000000000e+02 8.406250000000e+00 4.728411243022e-09-1.574460534281e+00
    3.464519977570e-07 1.070214901119e-03 6.414949893951e-06 5.153587472916e+03
    1.080000000000e+05-2.607703208923e-08 8.111886513434e-01-1.303851604462e-08
    9.601929244380e-01 2.558750000000e+02-3.038998455924e+00-8.003547665600e-09
    1.853648640478e-10 1.000000000000e+00 2.142000000000e+03 0.000000000000e+00
    2.400000000000e+00 0.000000000000e+00-4.190951585770e-09 4.090000000000e+02
    1.008000000000e+05 4.000000000000e+00
10 21  1 25  6  0  0.0-4.677241668105e-05-8.412825991400e-12 0.000000000000e+00
    9.200000000000e+01-5.906250000000e+01 4.263391873099e-09 9.580708286385e-01
   -2.861022949219e-06 6.413307273760e-03 9.905546903610e-06 5.153673660278e+03
    1.080000000000e+05 5.587935447693e-08-2.713801733764e-01 6.519258022308e-08
    9.683732785312e-01 1.934375000000e+02-2.610163495352e+00-7.832111953186e-09
    1.585780339831e-10 1.000000000000e+00 2.142000000000e+03 0.000000000000e+00
    2.400000000000e+00 0.000000000000e+00 2.328306436539e-09 9.200000000000e+01
    1.008000000000e+05 4.000000000000e+00
32 21  1 25  6  0  0.0 1.598522067070e-05 1.818989403546e-12 0.000000000000e+00
    5.000000000000e+00 9.218750000000e+00 4.921276419488e-09-3.614097977573e-01
    4.228204488754e-07 4.480196046643e-03 6.318092346191e-06 5.153620704651e+03
    1.080000000000e+05 3.539025783539e-08 7.708331344884e-01 5.960464477539e-08
    9.570649788322e-01 2.563125000000e+02-2.450357447703e+00-8.172840431609e-09
    1.850077063136e-10 1.000000000000e+00 2.142000000000e+03 0.000000000000e+00
    2.400000000000e+00 0.000000000000e+00 4.656612873077e-10 5.000000000000e+00
    1.008000000000e+05 4.000000000000e+00
26 21  1 25  6  0  0.0 3.501400351524e-05 5.570655048359e-12 0.000000000000e+00
    1.000000000000e+01 8.925000000000e+01 4.616620872219e-09 7.274017036350e-01
    4.729256033897e-06 5.653828382492e-03 9.138137102127e-06 5.153749717712e+03
    1.080000000000e+05 3.539025783539e-08 2.832115736668e+00 1.154839992523e-07
    9.437389259658e-01 1.927500000000e+02 2.584350351194e-01-8.050335328780e-09
   -1.089331089298e-10 1.000000000000e+00 2.142000000000e+03 0.000000000000e+00
    2.400000000000e+00 0.000000000000e+00 6.984919309616e-09 1.000000000000e+01
    1.008000000000e+05 4.000000000000e+00
17 21  1 25  6  0  0.0 3.845668397844e-04 4.774847184308e-12 0.000000000000e+00
    1.300000000000e+01 4.287500000000e+01 4.326965949786e-09-1.199948131228e+00
    2.583488821983e-06 1.358725549653e-02 2.615153789520e-06 5.153536247253e+03
    1.080000000000e+05-1.620501279831e-07-2.304329929094e+00 2.328306436539e-07
    9.829212234829e-01 3.448750000000e+02-1.584239206836e+00-8.250700817664e-09
    1.732215010851e-10 1.000000000000e+00 2.142000000000e+03 0.000000000000e+00
    2.400000000000e+00 0.000000000000e+00-1.117587089539e-08 1.300000000000e+01
    1.008000000000e+05 4.000000000000e+00
15 21  1 25  6  0  0.0-1.739975996315e-04 2.614797267597e-12 0.000000000000e+00
    3.500000000000e+01 1.137500000000e+01 5.370580849107e-09-2.107327451333e+00
    5.625188350677e-07 1.303070399445e-02 6.427988409996e-06 5.153548572540e+03
    1.080000000000e+05 1.434236764908e-07 6.654938368781e-01-1.024454832077e-07
    9.287455853644e-01 2.365625000000e+02 9.629100636292e-01-8.147839390215e-09
    3.746584631717e-10 1.000000000000e+00 2.142000000000e+03 0.000000000000e+00
    2.400000000000e+00 0.000000000000e+00-1.071020960808e-08 3.500000000000e+01
    1.008000000000e+05 4.000000000000e+00
31 21  1 25  6  0  0.0-9.598350152373e-05-2.273736754432e-12 0.000000000000e+00
    7.100000000000e+01-4.312500000000e+00 4.644122017752e-09 1.885691389038e+00
   -9.126961231232e-08 9.978473070078e-03 8.469447493553e-06 5.153725681305e+03
    1.080000000000e+05-1.192092895508e-07 1.851250218837e+00 4.842877388000e-08
    9.560423171714e-01 2.176250000000e+02 2.399486206518e-01-7.951045478673e-09
   -5.996678357152e-10 1.000000000000e+00 2.142000000000e+03 0.000000000000e+00
    2.400000000000e+00 0.000000000000e+00-1.303851604462e-08 7.100000000000e+01
    1.008000000000e+05 4.000000000000e+00
29 21  1 25  6  0  0.0-2.822875976562e-04-7.162270776462e-12 0.000000000000e+00
    6.700000000000e+01 4.975000000000e+01 4.255891560681e-09-1.032262660512e+00
    2.425163984299e-06 1.464137341827e-03 1.888722181320e-06 5.153693264008e+03
    1.080000000000e+05-2.607703208923e-08-2.292115575471e+00-1.303851604462e-08
    9.847061269056e-01 3.596250000000e+02 2.186480685023e+00-8.198555788471e-09
    1.842933908452e-10 1.000000000000e+00 2.142000000000e+03 0.000000000000e+00
    2.400000000000e+00 0.000000000000e+00-1.024454832077e-08 6.700000000000e+01
    1.008000000000e+05 4.000000000000e+00
30 21  1 25  6  0  0.0-3.743274137378e-04-5.911715561524e-12 0.000000000000e+00
    7.400000000000e+01 8.125000000000e-01 5.078782980268e-09 2.315678290804e+00
    2.793967723846e-08 4.796264576726e-03 7.927417755127e-06 5.153753147125e+03
    1.080000000000e+05-7.636845111847e-08 1.853712846855e+00 2.048909664154e-08
    9.369343731803e-01 2.152812500000e+02-2.850631055471e+00-8.160339910912e-09
   -4.489472718845e-10 1.000000000000e+00 2.142000000000e+03 0.000000000000e+00
    2.400000000000e+00 0.000000000000e+00 3.725290298462e-09 7.400000000000e+01
    1.008000000000e+05 4.000000000000e+00
27 21  1 25  6  0  0.0-6.294017657638e-05-7.617018127348e-12 0.000000000000e+00
    8.400000000000e+01 5.793750000000e+01 4.345180994230e-09-1.104920665204e+00
    3.054738044739e-06 8.912847377360e-03 2.156943082809e-06 5.153674934387e+03
    1.080000000000e+05 2.123415470123e-07-2.364266126066e+00 1.862645149231e-08
    9.768709278524e-01 3.438125000000e+02 5.683442648142e-01-8.174626220280e-09
    2.125088518467e-10 1.000000000000e+00 2.142000000000e+03 0.000000000000e+00
    2.400000000000e+00 0.000000000000e+00 1.862645149231e-09 8.400000000000e+01
    1.008000000000e+05 4.000000000000e+00
22 21  1 25  6  0  0.0-6.920462474227e-04 6.934897101019e-12 0.000000000000e+00
    4.600000000000e+01-6.040625000000e+01 4.868059917093e-09-2.124371125750e+00
   -3.095716238022e-06 6.892363191582e-03 9.723007678986e-06 5.153626619339e+03
    1.080000000000e+05-5.215406417847e-08-3.635403755559e-01 1.378357410431e-07
    9.338137246099e-01 1.754687500000e+02-1.046292325772e+00-8.027477233791e-09
    1.932223342001e-10 1.000000000000e+00 2.142000000000e+03 0.000000000000e+00
    2.400000000000e+00 0.000000000000e+00-1.816079020500e-08 4.600000000000e+01
    1.008000000000e+05 4.000000000000e+00
19 21  1 25  6  0  0.0-4.739500582218e-05 5.002220859751e-12 0.000000000000e+00
    4.400000000000e+01 3.265625000000e+01 4.327680265254e-09 1.370033258653e+00
    1.525506377220e-06 8.996341144666e-03 2.080574631691e-06 5.153615436554e+03
    1.080000000000e+05 1.117587089539e-08-2.259029832517e+00-2.644956111908e-07
    9.813087922501e-01 3.500625000000e+02 1.773668833569e+00-8.177840639888e-09
    1.535778257043e-10 1.000000000000e+00 2.142000000000e+03 0.000000000000e+00
    2.400000000000e+00 0.000000000000e+00-1.583248376846e-08 4.400000000000e+01
    1.008000000000e+05 4.000000000000e+00
24 21  1 25  6  0  0.0 3.217253834009e-06-5.684341886081e-13 0.000000000000e+00
    4.600000000000e+01-1.281250000000e+00 5.062710882229e-09-2.964609331993e+00
   -1.136213541031e-07 1.086754992139e-02 7.620081305504e-06 5.153615459442e+03
    1.080000000000e+05 1.862645149231e-08 1.758434661542e+00-1.527369022369e-07
    9.350120622512e-01 2.181562500000e+02 7.255136747281e-01-8.049978171046e-09
   -4.153744448700e-10 1.000000000000e+00 2.142000000000e+03 0.000000000000e+00
    2.400000000000e+00 0.000000000000e+00 2.793967723846e-09 4.600000000000e+01
    1.008000000000e+05 4.000000000000e+00
16 21  1 25  6  0  0.0-2.701180055737e-04-5.570655048359e-12 0.000000000000e+00
    1.000000000000e+02 9.093750000000e+01 4.004095358072e-09-1.951790761862e-01
    4.963949322701e-06 1.208799239248e-02 8.884817361832e-06 5.153641975403e+03
    1.080000000000e+05 7.636845111847e-08 2.962585168318e+00 1.266598701477e-07
    9.756334044874e-01 2.160000000000e+02 6.447923727962e-01-7.920687071267e-09
    3.643008888800e-11 1.000000000000e+00 2.142000000000e+03 0.000000000000e+00
    2.400000000000e+00 0.000000000000e+00-1.024454832077e-08 1.000000000000e+02
    1.008000000000e+05 4.000000000000e+00
12 21  1 25  6  0  0.0 8.231494575739e-06-5.229594535194e-12 0.000000000000e+00
    9.400000000000e+01 1.125312500000e+02 3.904091192497e-09 1.680422189426e+00
    5.727633833885e-06 8.254200452939e-03 9.285286068916e-06 5.153573160172e+03
    1.080000000000e+05-1.192092895508e-07 2.943792518283e+00-1.583248376846e-07
    9.754952611332e-01 2.065625000000e+02 1.174758203337e+00-7.758537459942e-09
    4.214461263514e-11 1.000000000000e+00 2.142000000000e+03 0.000000000000e+00
    2.400000000000e+00 0.000000000000e+00-1.257285475731e-08 9.400000000000e+01
    1.008000000000e+05 4.000000000000e+00
21 21  1 25  6  0  0.0 8.978694677353e-05 3.296918293927e-12 0.000000000000e+00
    5.500000000000e+01-8.334375000000e+01 4.830558355002e-09-8.813412435147e-01
   -4.449859261513e-06 2.423104888294e-02 5.004927515984e-06 5.153729095459e+03
    1.080000000000e+05-3.781169652939e-07-1.387585932009e+00-5.774199962616e-08
    9.556896046967e-01 2.871875000000e+02-1.205874504531e+00-8.705362613295e-09
    6.071681481333e-11 1.000000000000e+00 2.142000000000e+03 0.000000000000e+00
    3.400000000000e+00 0.000000000000e+00-1.024454832077e-08 5.500000000000e+01
    1.008000000000e+05 4.000000000000e+00
